IRIDIUM 136             
1 42962U 17061H   24289.68600164 -.00000301  00000+0 -11458-3 0  9991
2 42962  86.3909 279.9342 0002066  92.4088 267.7344 14.34216378367470
